[{"OBJECT_NAME":"STARLINK-4758","OBJECT_ID":"2022-114C","EPOCH":"2026-03-09T22:10:34.844160","MEAN_MOTION":15.08837521,"ECCENTRICITY":0.0001241,"INCLINATION":53.2172,"RA_OF_ASC_NODE":303.2911,"ARG_OF_PERICENTER":83.3214,"MEAN_ANOMALY":276.7919,"EPHEMERIS_TYPE":0,"CLASSIFICATION_TYPE":"U","NORAD_CAT_ID":53820,"ELEMENT_SET_NO":999,"REV_AT_EPOCH":19286,"BSTAR":-3.8139958e-5,"MEAN_MOTION_DOT":-8.95e-6,"MEAN_MOTION_DDOT":0},{"OBJECT_NAME":"FENGYUN 1C DEB","OBJECT_ID":"1999-025DWK","EPOCH":"2026-03-04T22:59:43.178496","MEAN_MOTION":14.75372926,"ECCENTRICITY":0.0170684,"INCLINATION":99.0756,"RA_OF_ASC_NODE":108.4567,"ARG_OF_PERICENTER":229.4091,"MEAN_ANOMALY":129.2157,"EPHEMERIS_TYPE":0,"CLASSIFICATION_TYPE":"U","NORAD_CAT_ID":36258,"ELEMENT_SET_NO":999,"REV_AT_EPOCH":92034,"BSTAR":0.000371885,"MEAN_MOTION_DOT":3.121e-5,"MEAN_MOTION_DDOT":0}]
